STARLINK-30912          
1 58422U 23180W   26068.53218252 -.00001759  00000+0 -54392-4 0  9995
2 58422  43.0033 271.1870 0002016 274.9961  85.0660 15.27584533129278
TRANSPORTER-12 OBJECT BT
1 62674U 25009BT  26068.71416991  .00013824  00000+0  51029-3 0  9998
2 62674  97.4094 151.5992 0003682 313.5044  46.5889 15.27872239121360
